[{"OBJECT_NAME":"STARLINK-30508","OBJECT_ID":"2023-151R","EPOCH":"2026-03-09T22:00:01.999584","MEAN_MOTION":15.26754835,"ECCENTRICITY":0.00018952,"INCLINATION":42.9999,"RA_OF_ASC_NODE":349.4045,"ARG_OF_PERICENTER":269.8199,"MEAN_ANOMALY":246.9133,"EPHEMERIS_TYPE":0,"CLASSIFICATION_TYPE":"U","NORAD_CAT_ID":57979,"ELEMENT_SET_NO":999,"REV_AT_EPOCH":577,"BSTAR":-0.00031514839,"MEAN_MOTION_DOT":-8.707e-5,"MEAN_MOTION_DDOT":0},{"OBJECT_NAME":"FLOCK 4G-23","OBJECT_ID":"2025-009AQ","EPOCH":"2026-03-09T17:11:57.175872","MEAN_MOTION":15.27262579,"ECCENTRICITY":9.048e-5,"INCLINATION":97.3979,"RA_OF_ASC_NODE":150.9478,"ARG_OF_PERICENTER":7.2707,"MEAN_ANOMALY":352.8545,"EPHEMERIS_TYPE":0,"CLASSIFICATION_TYPE":"U","NORAD_CAT_ID":62647,"ELEMENT_SET_NO":999,"REV_AT_EPOCH":6372,"BSTAR":0.00046815788,"MEAN_MOTION_DOT":0.0001244,"MEAN_MOTION_DDOT":0}]
